{
"type": "FeatureCollection",
"features": [
{
  "type": "Feature",
  "id": "node/4512678989",
  "properties": {
    "addr:housenumber": "7",
    "addr:postcode": "2502",
    "addr:street": "Bahnhofstrasse",
    "amenity": "hospital",
    "healthcare": "hospital",
    "name": "Kapp Coaching Therapie",
    "phone": "+41 33 533 35 10",
    "website": "https://www.kapp.ch/",
    "id": "node/4512678989"
  },
  "geometry": {
    "type": "Point",
    "coordinates": [
      7.2435506,
      47.1341332
    ]
  }
},
{
  "type": "Feature",
  "id": "node/5954425430",
  "properties": {
    "addr:city": "Lungern",
    "addr:housenumber": "2",
    "addr:postcode": "6078",
    "addr:street": "Eimatte",
    "amenity": "doctors",
    "emergency": "no",
    "healthcare": "hospital",
    "healthcare:speciality": "general",
    "operator": "Mir Tolouei M. Reza",
    "wheelchair": "yes",
    "id": "node/5954425430"
  },
  "geometry": {
    "type": "Point",
    "coordinates": [
      8.1604844,
      46.7878415
    ]
  }
},
{
  "type": "Feature",
  "id": "node/7315912473",
  "properties": {
    "addr:city": "Dielsdorf",
    "addr:housenumber": "11",
    "addr:postcode": "8157",
    "addr:street": "Breitestrasse",
    "amenity": "hospital",
    "healthcare": "hospital",
    "name": "ADUS Klinik",
    "phone": "+41 44 854 64 90",
    "website": "https://www.adus-klinik.ch/",
    "wheelchair": "yes",
    "id": "node/7315912473"
  },
  "geometry": {
    "type": "Point",
    "coordinates": [
      8.4512043,
      47.4785723
    ]
  }
},
{
  "type": "Feature",
  "id": "node/7315952092",
  "properties": {
    "amenity": "hospital",
    "healthcare": "hospital",
    "name": "Adullam Spital und Pflegezentren",
    "id": "node/7315952092"
  },
  "geometry": {
    "type": "Point",
    "coordinates": [
      7.5796527,
      47.5601759
    ]
  }
},
{
  "type": "Feature",
  "id": "node/7316166708",
  "properties": {
    "addr:city": "La Tène",
    "addr:postcode": "2074",
    "addr:street": "Prefargier",
    "amenity": "hospital",
    "healthcare": "hospital",
    "healthcare:speciality": "psychiatry",
    "name": "Centre neuchâtelois de psychiatrie CNP",
    "id": "node/7316166708"
  },
  "geometry": {
    "type": "Point",
    "coordinates": [
      7.0078594,
      47.0058977
    ]
  }
},
{
  "type": "Feature",
  "id": "node/7383484724",
  "properties": {
    "addr:city": "Sembrancher",
    "addr:housenumber": "14",
    "addr:postcode": "1933",
    "addr:street": "Route de la Gravenne",
    "amenity": "hospital",
    "emergency": "yes",
    "healthcare": "hospital",
    "healthcare:speciality": "general",
    "name": "Maison de la Santé de la Gravenne",
    "operator": "Médidranses",
    "operator:type": "public",
    "website": "https://www.medidranse.ch/",
    "wheelchair": "yes",
    "id": "node/7383484724"
  },
  "geometry": {
    "type": "Point",
    "coordinates": [
      7.1462937,
      46.0780451
    ]
  }
},
{
  "type": "Feature",
  "id": "node/7587836147",
  "properties": {
    "addr:city": "Leukerbad",
    "addr:housenumber": "14",
    "addr:postcode": "3954",
    "addr:street": "Grunibodenstr",
    "amenity": "hospital",
    "healthcare": "hospital",
    "name": "Leukerbad Holiday Home",
    "website": "https://www.leukerbad-holiday.com/de",
    "id": "node/7587836147"
  },
  "geometry": {
    "type": "Point",
    "coordinates": [
      7.6267888,
      46.3823532
    ]
  }
},
{
  "type": "Feature",
  "id": "node/7836790637",
  "properties": {
    "addr:city": "Basel",
    "addr:housenumber": "3",
    "addr:postcode": "4001",
    "addr:street": "Münzgasse",
    "amenity": "hospital",
    "email": "praxis@gerberhostettler-willi.ch",
    "healthcare": "doctor",
    "healthcare:speciality": "ophthalmology",
    "name": "Augenarztpraxis",
    "operator": "Dr. D. Gerber Hostettler und Dr. M. Willi",
    "operator:type": "private_individual",
    "phone": "+41612609911",
    "id": "node/7836790637"
  },
  "geometry": {
    "type": "Point",
    "coordinates": [
      7.5870982,
      47.5572679
    ]
  }
},
{
  "type": "Feature",
  "id": "node/8158697429",
  "properties": {
    "addr:city": "Biel/Bienne",
    "addr:housenumber": "7",
    "addr:postcode": "2502",
    "addr:street": "Rue de la Gare / Bahnhofstrasse",
    "amenity": "hospital",
    "healthcare": "hospital",
    "healthcare:speciality": "applied_kinesiology",
    "name": "MRG Kinésiologie",
    "operator": "Bart Woudman",
    "operator:type": "private_for_profit",
    "id": "node/8158697429"
  },
  "geometry": {
    "type": "Point",
    "coordinates": [
      7.2435324,
      47.1341394
    ]
  }
}
]
}
