{
"type": "FeatureCollection",
"features": [
{
  "type": "Feature",
  "id": "node/8320771141",
  "properties": {
    "addr:city": "Zürich",
    "addr:housenumber": "84",
    "addr:postcode": "8001",
    "addr:street": "Hirschengraben",
    "alt_name": "COVID-19 Impfzentrum Zürich",
    "healthcare": "centre",
    "healthcare:speciality": "vaccination",
    "name": "Corona-Zentrum der Universität Zürich",
    "note": "Für Schutz & Rettung u.a einsatzrelevant.",
    "opening_hours": "Mo-Fr 09:00-17:00",
    "operator": "Universität Zürich",
    "phone": "0800 33 66 55",
    "vaccination": "covid19",
    "website": "https://coronazentrum.uzh.ch/",
    "id": "node/8320771141"
  },
  "geometry": {
    "type": "Point",
    "coordinates": [
      8.545448,
      47.3759572
    ]
  }
},
{
  "type": "Feature",
  "id": "node/8382900798",
  "properties": {
    "addr:city": "Zürich",
    "addr:housenumber": "497",
    "addr:postcode": "8063",
    "addr:street": "Birmensdorferstrasse",
    "alt_name": "COVID-19 Impfzentrum Triemli",
    "healthcare": "centre",
    "healthcare:speciality": "vaccination",
    "name": "Impfzentrum Stadtspital Triemli",
    "note": "Für Schutz & Rettung u.a einsatzrelevant.",
    "phone": "+41 44 416 11 11",
    "vaccination": "covid19",
    "website": "https://www.stadt-zuerich.ch/triemli/de/index/service/medien/auszeichnungen-news/coronaimpfungen.html",
    "id": "node/8382900798"
  },
  "geometry": {
    "type": "Point",
    "coordinates": [
      8.4976486,
      47.365833
    ]
  }
},
{
  "type": "Feature",
  "id": "node/8382900799",
  "properties": {
    "addr:city": "Zürich",
    "addr:postcode": "8050",
    "addr:street": "Wallisellenstrasse",
    "alt_name": "COVID-19 Impfzentrum Messe Zürich",
    "description": "Ab Ende Februar",
    "healthcare": "centre",
    "healthcare:speciality": "vaccination",
    "name": "Impfzentrum Messe Zürich",
    "note": "Für Schutz & Rettung u.a einsatzrelevant.",
    "operator": "Kanton Zürich",
    "phone": "+41 44 416 11 11",
    "vaccination": "covid19",
    "website": "https://www.zh.ch/de/news-uebersicht/medienmitteilungen/2021/01/kanton-zuerich-stellt-in-zusammenarbeit-mit-spitaelern-elf-impfzentren-bereit.html",
    "id": "node/8382900799"
  },
  "geometry": {
    "type": "Point",
    "coordinates": [
      8.553368,
      47.4110267
    ]
  }
},
{
  "type": "Feature",
  "id": "node/8383564424",
  "properties": {
    "addr:city": "Meilen",
    "addr:housenumber": "17",
    "addr:postcode": "8706",
    "addr:street": "Schulhausstrasse",
    "alt_name": "COVID-19 Impfzentrum Meilen",
    "description": "Ab April geöffnet",
    "healthcare": "centre",
    "healthcare:speciality": "vaccination",
    "name": "Impfzentrum Meilen",
    "note": "Für Schutz & Rettung u.a einsatzrelevant.",
    "operator": "Kanton Zürich",
    "vaccination": "covid19",
    "id": "node/8383564424"
  },
  "geometry": {
    "type": "Point",
    "coordinates": [
      8.6419997,
      47.2687066
    ]
  }
},
{
  "type": "Feature",
  "id": "node/8383564425",
  "properties": {
    "addr:city": "Dietikon",
    "addr:housenumber": "15",
    "addr:postcode": "8953",
    "addr:street": "Fondlistrasse",
    "alt_name": "COVID-19 Impfzentrum Dietikon",
    "description": "Ab April geöffnet",
    "healthcare": "centre",
    "healthcare:speciality": "vaccination",
    "name": "Impfzentrum Dietikon",
    "note": "Für Schutz & Rettung u.a einsatzrelevant.",
    "operator": "Kanton Zürich",
    "vaccination": "covid19",
    "id": "node/8383564425"
  },
  "geometry": {
    "type": "Point",
    "coordinates": [
      8.3870356,
      47.4070415
    ]
  }
},
{
  "type": "Feature",
  "id": "node/8383564426",
  "properties": {
    "addr:city": "Winterthur",
    "addr:postcode": "8404",
    "alt_name": "COVID-19 Impfzentrum Winterthur",
    "description": "Ab April geöffnet / genauer Standort folgt",
    "healthcare": "centre",
    "healthcare:speciality": "vaccination",
    "name": "Impfzentrum Winterthur",
    "note": "Für Schutz & Rettung u.a einsatzrelevant.",
    "operator": "Kanton Zürich",
    "vaccination": "covid19",
    "id": "node/8383564426"
  },
  "geometry": {
    "type": "Point",
    "coordinates": [
      8.706429,
      47.4867953
    ]
  }
},
{
  "type": "Feature",
  "id": "node/8383564427",
  "properties": {
    "addr:city": "Affoltern a. A.",
    "addr:housenumber": "19",
    "addr:postcode": "8910",
    "addr:street": "Industriestrasse",
    "alt_name": "COVID-19 Impfzentrum Affoltern a.A.",
    "description": "Ab April geöffnet",
    "healthcare": "centre",
    "healthcare:speciality": "vaccination",
    "name": "Impfzentrum Affoltern a.A.",
    "note": "Für Schutz & Rettung u.a einsatzrelevant.",
    "operator": "Kanton Zürich",
    "vaccination": "covid19",
    "id": "node/8383564427"
  },
  "geometry": {
    "type": "Point",
    "coordinates": [
      8.4454151,
      47.2711322
    ]
  }
},
{
  "type": "Feature",
  "id": "node/8383564428",
  "properties": {
    "addr:city": "Wetzikon",
    "addr:housenumber": "63",
    "addr:postcode": "8620",
    "addr:street": "Rapperswilerstrasse",
    "alt_name": "COVID-19 Impfzentrum Wetzikon",
    "description": "Ab April geöffnet",
    "healthcare": "centre",
    "healthcare:speciality": "vaccination",
    "name": "Impfzentrum Wetzikon",
    "note": "Für Schutz & Rettung u.a einsatzrelevant.",
    "operator": "Kanton Zürich",
    "vaccination": "covid19",
    "id": "node/8383564428"
  },
  "geometry": {
    "type": "Point",
    "coordinates": [
      8.7991575,
      47.3157625
    ]
  }
}
]
}
